NORAD_CAT_ID,OBJECT_NAME,OBJECT_TYPE,EPOCH,MEAN_MOTION,ECCENTRICITY,INCLINATION,RA_OF_ASC_NODE,ARG_OF_PERICENTER,MEAN_ANOMALY,BSTAR,MEAN_MOTION_DOT,MEAN_MOTION_DDOT,TLE_LINE0,TLE_LINE1,TLE_LINE2,SEMIMAJOR_AXIS,PERIOD,APOGEE,PERIGEE,DECAYED
53834.0,STARLINK-4737,PAYLOAD,2022-10-25 22:00:01,15.73212379,9.66e-05,53.2146,76.3097,48.9403,69.3177,3.433e-05,4.203e-05,0.0,0 STARLINK-4737,1 53834U 22114S   22298.91668981  .00004203  00000-0  34330-4 0  9990,2 53834  53.2146  76.3097 0000966  48.9403  69.3177 15.73212379  1304,6727.86,91.532,350.375,349.075,0.0
53834.0,STARLINK-4737,PAYLOAD,2022-10-26 06:00:00,15.73201771,8.82e-05,53.2148,74.6582,65.32300000000001,141.8259,0.00071826,0.00101415,0.0,0 STARLINK-4737,1 53834U 22114S   22299.25001157  .00101415  00000-0  71826-3 0  9997,2 53834  53.2148  74.6582 0000882  65.3230 141.8259 15.73201771  6434,6727.89,91.533,350.349,349.162,0.0
53834.0,STARLINK-4737,PAYLOAD,2022-10-26 14:00:01,15.73261336,0.0001185,53.2152,73.0101,61.8883,234.218,-0.00044039,-0.00062132,0.0,0 STARLINK-4737,1 53834U 22114S   22299.58334491 -.00062132  00000-0 -44039-3 0  9993,2 53834  53.2152  73.0101 0001185  61.8883 234.2180 15.73261336  6489,6727.72,91.53,350.3830000000001,348.788,0.0
53834.0,STARLINK-4737,PAYLOAD,2022-10-26 22:00:00,15.73258323,0.0001359,53.2153,71.3611,53.2448,331.8259,-0.00019645,-0.00028167,0.0,0 STARLINK-4737,1 53834U 22114S   22299.91667824 -.00028167  00000-0 -19645-3 0  9994,2 53834  53.2153  71.3611 0001359  53.2448 331.8259 15.73258323  1301,6727.729,91.53,350.5080000000001,348.68,0.0
53834.0,STARLINK-4737,PAYLOAD,2022-10-27 14:00:01,15.73247482,0.0001114,53.2173,68.0609,75.1105,127.977,-0.0044373,-0.00583175,0.0,0 STARLINK-4737,1 53834U 22114S   22300.58335648 -.00583175  00000-0 -44373-2 0  9996,2 53834  53.2173  68.0609 0001114  75.1105 127.9770 15.73247482  6643,6727.76,91.53,350.374,348.875,0.0
53834.0,STARLINK-4737,PAYLOAD,2022-10-27 22:00:00,15.72921767,0.0001115999999999,53.2167,66.4124,46.34,245.4193,-0.0088566,-0.01099858,0.0,0 STARLINK-4737,1 53834U 22114S   22300.91667824 -.01099858  00000-0 -88566-2 0  9990,2 53834  53.2167  66.4124 0001116  46.3400 245.4193 15.72921767  1307,6728.689,91.549,351.30400000000014,349.80300000000005,0.0
53834.0,STARLINK-4737,PAYLOAD,2022-10-28 00:00:02,15.72737333,0.0001283,53.217,65.9996,44.7554,359.1821,-0.0091717,-0.0112682,0.0,0 STARLINK-4737,1 53834U 22114S   22301.00002315 -.01126820  00000-0 -91717-2 0  9991,2 53834  53.2170  65.9996 0001283  44.7554 359.1821 15.72737333  6703,6729.215,91.56,351.9430000000001,350.216,0.0
53834.0,STARLINK-4737,PAYLOAD,2022-10-28 14:00:01,15.71308863,0.000132,53.2171,63.1182,52.7588,54.3107,-0.0096896,-0.01120617,0.0,0 STARLINK-4737,1 53834U 22114S   22301.58335648 -.01120617  00000-0 -96896-2 0  9993,2 53834  53.2171  63.1182 0001320  52.7588  54.3107 15.71308863  1302,6733.292,91.643,356.046,354.269,0.0
53834.0,STARLINK-4737,PAYLOAD,2022-10-28 22:00:01,15.70500898,0.0001378,53.2169,61.4746,44.3971,148.8283,-0.010111,-0.01129018,0.0,0 STARLINK-4737,1 53834U 22114S   22301.91668981 -.01129018  00000-0 -10111-1 0  9998,2 53834  53.2169  61.4746 0001378  44.3971 148.8283 15.70500898  6852,6735.601,91.69,358.395,356.538,0.0
53834.0,STARLINK-4737,PAYLOAD,2022-10-29 12:00:00,15.69089671,0.0001284,53.2175,58.6017,51.5876,199.9893,-0.01087,-0.01161389,0.0,0 STARLINK-4737,1 53834U 22114S   22302.50001157 -.01161389  00000-0 -10870-1 0  9999,2 53834  53.2175  58.6017 0001284  51.5876 199.9893 15.69089671  1306,6739.639,91.773,362.37,360.639,0.0
53834.0,STARLINK-4737,PAYLOAD,2022-10-29 22:00:01,15.6806878,0.0001602,53.2168,56.5545,35.7474,50.081,-0.0112959999999999,-0.0115746,0.0,0 STARLINK-4737,1 53834U 22114S   22302.91668981 -.01157460  00000-0 -11296-1 0  9996,2 53834  53.2168  56.5545 0001602  35.7474  50.0810 15.68068780  1306,6742.564,91.833,365.51,363.349,0.0
53834.0,STARLINK-4737,PAYLOAD,2022-10-30 00:00:00,15.67852314,0.0001548,53.2172,56.1447,42.71100000000001,153.7124,-0.011214,-0.01140558,0.0,0 STARLINK-4737,1 53834U 22114S   22303.00001157 -.01140558  00000-0 -11214-1 0  9993,2 53834  53.2172  56.1447 0001548  42.7110 153.7124 15.67852314  7029,6743.185,91.845,366.094,364.006,0.0
53834.0,STARLINK-4737,PAYLOAD,2022-10-30 14:00:01,15.66425877,0.0001374,53.2172,53.2847,56.0103,193.2759,-0.011837,-0.01136064,0.0,0 STARLINK-4737,1 53834U 22114S   22303.58334491 -.01136064  00000-0 -11837-1 0  9994,2 53834  53.2172  53.2847 0001374  56.0103 193.2759 15.66425877  1305,6747.278,91.929,370.07,368.216,0.0
53834.0,STARLINK-4737,PAYLOAD,2022-10-30 22:00:01,15.65623662,0.0001496999999999,53.2168,51.6525,38.6431,290.9942,-0.012415,-0.01151838,0.0,0 STARLINK-4737,1 53834U 22114S   22303.91668981 -.01151838  00000-0 -12415-1 0  9994,2 53834  53.2168  51.6525 0001497  38.6431 290.9942 15.65623662  1301,6749.583000000001,91.976,372.458,370.437,0.0
53834.0,STARLINK-4737,PAYLOAD,2022-10-31 14:00:01,15.63957917,0.0001718,53.2173,48.3945,43.3024,83.9353,-0.012569,-0.01096361,0.0,0 STARLINK-4737,1 53834U 22114S   22304.58334491 -.01096361  00000-0 -12569-1 0  9993,2 53834  53.2173  48.3945 0001718  43.3024  83.9353 15.63957917  1300,6754.374,92.074,377.4,375.079,0.0
53834.0,STARLINK-4737,PAYLOAD,2022-10-31 22:00:01,15.63180524,0.0001774999999999,53.217,46.7679,36.5382,168.107,-0.013649,-0.01148931,0.0,0 STARLINK-4737,1 53834U 22114S   22304.91668981 -.01148931  00000-0 -13649-1 0  9995,2 53834  53.2170  46.7679 0001775  36.5382 168.1070 15.63180524  7329,6756.614000000001,92.12,379.67800000000005,377.279,0.0
53834.0,STARLINK-4737,PAYLOAD,2022-11-01 14:00:01,15.61561143,0.0001568,53.2174,43.5223,36.0348,320.3226,-0.014691,-0.01159219,0.0,0 STARLINK-4737,1 53834U 22114S   22305.58334491 -.01159219  00000-0 -14691-1 0  9994,2 53834  53.2174  43.5223 0001568  36.0348 320.3226 15.61561143  1305,6761.284000000002,92.215,384.209,382.089,0.0
53834.0,STARLINK-4737,PAYLOAD,2022-11-01 22:00:00,15.60736102,0.0001886999999999,53.2168,41.9015,27.0456,43.7413,-0.014929,-0.01142654,0.0,0 STARLINK-4737,1 53834U 22114S   22305.91667824 -.01142654  00000-0 -14929-1 0  9999,2 53834  53.2168  41.9015 0001887  27.0456  43.7413 15.60736102  7480,6763.667,92.264,386.8080000000001,384.255,0.0
53834.0,STARLINK-4737,PAYLOAD,2022-11-02 14:00:01,15.59102325,0.0001915,53.2173,38.6677,33.7172,182.9866,-0.0157509999999999,-0.01133056,0.0,0 STARLINK-4737,1 53834U 22114S   22306.58334491 -.01133056  00000-0 -15751-1 0  9994,2 53834  53.2173  38.6677 0001915  33.7172 182.9866 15.59102325  1309,6768.391,92.361,391.552,388.96,0.0
53834.0,STARLINK-4737,PAYLOAD,2022-11-02 22:00:00,15.58290535,0.0001304,53.2173,37.0524,51.07899999999999,237.1153,-0.016299,-0.01136174,0.0,0 STARLINK-4737,1 53834U 22114S   22306.91667824 -.01136174  00000-0 -16299-1 0  9992,2 53834  53.2173  37.0524 0001304  51.0790 237.1153 15.58290535  7638,6770.741,92.409,393.489,391.723,0.0
53834.0,STARLINK-4737,PAYLOAD,2022-11-03 14:00:01,15.5666721,0.0001541,53.2175,33.8307,40.0058,28.2334,-0.0174129999999999,-0.01141193,0.0,0 STARLINK-4737,1 53834U 22114S   22307.58334491 -.01141193  00000-0 -17413-1 0  9993,2 53834  53.2175  33.8307 0001541  40.0058  28.2334 15.56667210  1305,6775.448,92.505,398.357,396.268,0.0
53834.0,STARLINK-4737,PAYLOAD,2022-11-03 22:00:00,15.55847761,0.0001573,53.2174,32.2211,43.0762,93.7233,-0.017807,-0.01132689,0.0,0 STARLINK-4737,1 53834U 22114S   22307.91667824 -.01132689  00000-0 -17807-1 0  9996,2 53834  53.2174  32.2211 0001573  43.0762  93.7233 15.55847761  1306,6777.826,92.554,400.758,398.625,0.0
53834.0,STARLINK-4737,PAYLOAD,2022-11-04 14:00:01,15.54220006,0.0001488,53.2175,29.0115,48.0701,222.9088,-0.018893,-0.01131513,0.0,0 STARLINK-4737,1 53834U 22114S   22308.58334491 -.01131513  00000-0 -18893-1 0  9992,2 53834  53.2175  29.0115 0001488  48.0701 222.9088 15.54220006  1307,6782.558000000001,92.651,405.432,403.414,0.0
53834.0,STARLINK-4737,PAYLOAD,2022-11-04 22:00:01,15.53427818,0.0001575,53.217,27.4078,36.096,300.5618,-0.020021,-0.01161448,0.0,0 STARLINK-4737,1 53834U 22114S   22308.91668981 -.01161448  00000-0 -20021-1 0  9999,2 53834  53.2170  27.4078 0001575  36.0960 300.5618 15.53427818  7940,6784.864000000001,92.698,407.797,405.66,0.0
53834.0,STARLINK-4737,PAYLOAD,2022-11-05 14:00:01,15.51782009,0.000182,53.2173,24.2099,38.9905,65.9883,-0.020731,-0.01135592,0.0,0 STARLINK-4737,1 53834U 22114S   22309.58335648 -.01135592  00000-0 -20731-1 0  9993,2 53834  53.2173  24.2099 0001820  38.9905  65.9883 15.51782009  1308,6789.66,92.797,412.761,410.289,0.0
53834.0,STARLINK-4737,PAYLOAD,2022-11-05 22:00:01,15.50921262,0.0001981,53.2172,22.612,38.432,129.238,-0.018561,-0.00998488,0.0,0 STARLINK-4737,1 53834U 22114S   22309.91668981 -.00998488  00000-0 -18561-1 0  9997,2 53834  53.2172  22.6120 0001981  38.4320 129.2380 15.50921262  1309,6792.172,92.848,415.383,412.691,0.0
53834.0,STARLINK-4737,PAYLOAD,2022-11-06 06:00:00,15.50131111,0.0002583,53.2171,21.0167,293.5273,295.7875,-0.0065581,-0.00359301,0.0,0 STARLINK-4737,1 53834U 22114S   22310.25001157 -.00359301  00000-0 -65581-2 0  9992,2 53834  53.2171  21.0167 0002583 293.5273 295.7875 15.50131111  8156,6794.48,92.895,418.1,414.59,0.0
53834.0,STARLINK-4737,PAYLOAD,2022-11-06 14:00:01,15.49799603,0.0001874,53.2162,19.4263,39.6184,250.5746,0.0025529,0.00146744,0.0,0 STARLINK-4737,1 53834U 22114S   22310.58334491  .00146744  00000-0  25529-2 0  9999,2 53834  53.2162  19.4263 0001874  39.6184 250.5746 15.49799603  1306,6795.449000000001,92.915,418.587,416.04,0.0
53834.0,STARLINK-4737,PAYLOAD,2022-11-07 08:00:01,15.49943573,0.000176,53.2164,15.8408,39.4904,117.7608,-0.00021031,-0.00012394,0.0,0 STARLINK-4737,1 53834U 22114S   22311.33334491 -.00012394  00000-0 -21031-3 0  9993,2 53834  53.2164  15.8408 0001760  39.4904 117.7608 15.49943573  8328,6795.028,92.907,418.089,415.697,0.0
